{
  "type": "FeatureCollection",
  "features": [
    {
      "type": "Feature",
      "properties": {
        "norad_id": 36036,
        "name": "SMOS",
        "group": "resource",
        "lat": -34.169311473958004,
        "lon": -8.8278113270772,
        "alt_km": 766.0568149509518,
        "timestamp": "2025-12-17T23:38:06.519844+00:00",
        "meta_object_name": "SMOS",
        "meta_object_id": "2009-059A",
        "meta_epoch": "2025-12-17T12:38:04.074720",
        "meta_mean_motion": 14.39745469,
        "meta_eccentricity": 0.00010941,
        "meta_inclination": 98.438,
        "meta_ra_of_asc_node": 176.504,
        "meta_arg_of_pericenter": 82.4304,
        "meta_mean_anomaly": 277.7008,
        "meta_ephemeris_type": 0,
        "meta_classification_type": "U",
        "meta_norad_cat_id": 36036,
        "meta_element_set_no": 999,
        "meta_rev_at_epoch": 84731,
        "meta_bstar": 0.00012015761,
        "meta_mean_motion_dot": 3.33e-06,
        "meta_mean_motion_ddot": 0,
        "tle_line1": "1 36036U 09059A   25351.52643605  .00000333  00000+0  12016-3 0  9999",
        "tle_line2": "2 36036  98.4380 176.5040 0001094  82.4304 277.7008 14.39745469847316"
      },
      "geometry": {
        "type": "Point",
        "coordinates": [
          -8.8278113270772,
          -34.169311473958004
        ]
      }
    },
    {
      "type": "Feature",
      "properties": {
        "norad_id": 36110,
        "name": "YAOGAN-7",
        "group": "resource",
        "lat": 35.357645431448084,
        "lon": -132.02575086619387,
        "alt_km": 645.1166510928715,
        "timestamp": "2025-12-17T23:38:06.519854+00:00",
        "meta_object_name": "YAOGAN-7",
        "meta_object_id": "2009-069A",
        "meta_epoch": "2025-12-17T15:20:53.168928",
        "meta_mean_motion": 14.77739661,
        "meta_eccentricity": 0.00233344,
        "meta_inclination": 98.0296,
        "meta_ra_of_asc_node": 233.3788,
        "meta_arg_of_pericenter": 264.5861,
        "meta_mean_anomaly": 95.2687,
        "meta_ephemeris_type": 0,
        "meta_classification_type": "U",
        "meta_norad_cat_id": 36110,
        "meta_element_set_no": 999,
        "meta_rev_at_epoch": 86281,
        "meta_bstar": 8.0721951e-05,
        "meta_mean_motion_dot": 5.28e-06,
        "meta_mean_motion_ddot": 0,
        "tle_line1": "1 36110U 09069A   25351.63950427  .00000528  00000+0  80722-4 0  9994",
        "tle_line2": "2 36110  98.0296 233.3788 0023334 264.5861  95.2687 14.77739661862811"
      },
      "geometry": {
        "type": "Point",
        "coordinates": [
          -132.02575086619387,
          35.357645431448084
        ]
      }
    },
    {
      "type": "Feature",
      "properties": {
        "norad_id": 36605,
        "name": "TANDEM-X",
        "group": "resource",
        "lat": -18.05782537949657,
        "lon": -0.268255048345169,
        "alt_km": 513.6519624219127,
        "timestamp": "2025-12-17T23:38:06.519864+00:00",
        "meta_object_name": "TANDEM-X",
        "meta_object_id": "2010-030A",
        "meta_epoch": "2025-12-17T14:13:48.411552",
        "meta_mean_motion": 15.19149806,
        "meta_eccentricity": 0.00018481,
        "meta_inclination": 97.4443,
        "meta_ra_of_asc_node": 356.9023,
        "meta_arg_of_pericenter": 79.8054,
        "meta_mean_anomaly": 280.3389,
        "meta_ephemeris_type": 0,
        "meta_classification_type": "U",
        "meta_norad_cat_id": 36605,
        "meta_element_set_no": 999,
        "meta_rev_at_epoch": 85907,
        "meta_bstar": 4.6537622e-05,
        "meta_mean_motion_dot": 9.1e-06,
        "meta_mean_motion_ddot": 0,
        "tle_line1": "1 36605U 10030A   25351.59292143  .00000910  00000+0  46538-4 0  9994",
        "tle_line2": "2 36605  97.4443 356.9023 0001848  79.8054 280.3389 15.19149806859071"
      },
      "geometry": {
        "type": "Point",
        "coordinates": [
          -0.268255048345169,
          -18.05782537949657
        ]
      }
    },
    {
      "type": "Feature",
      "properties": {
        "norad_id": 36795,
        "name": "CARTOSAT-2B",
        "group": "resource",
        "lat": -18.41468943639081,
        "lon": 43.45572255744708,
        "alt_km": 636.7025308353814,
        "timestamp": "2025-12-17T23:38:06.519875+00:00",
        "meta_object_name": "CARTOSAT-2B",
        "meta_object_id": "2010-035A",
        "meta_epoch": "2025-12-17T15:35:56.226048",
        "meta_mean_motion": 14.7873274,
        "meta_eccentricity": 0.00129215,
        "meta_inclination": 97.7853,
        "meta_ra_of_asc_node": 40.521,
        "meta_arg_of_pericenter": 61.8931,
        "meta_mean_anomaly": 298.3585,
        "meta_ephemeris_type": 0,
        "meta_classification_type": "U",
        "meta_norad_cat_id": 36795,
        "meta_element_set_no": 999,
        "meta_rev_at_epoch": 83302,
        "meta_bstar": 0.00011548663,
        "meta_mean_motion_dot": 7.99e-06,
        "meta_mean_motion_ddot": 0,
        "tle_line1": "1 36795U 10035A   25351.64995632  .00000799  00000+0  11549-3 0  9996",
        "tle_line2": "2 36795  97.7853  40.5210 0012921  61.8931 298.3585 14.78732740833025"
      },
      "geometry": {
        "type": "Point",
        "coordinates": [
          43.45572255744708,
          -18.41468943639081
        ]
      }
    },
    {
      "type": "Feature",
      "properties": {
        "norad_id": 36834,
        "name": "YAOGAN-10",
        "group": "resource",
        "lat": 6.853381192825752,
        "lon": -167.27544995782472,
        "alt_km": 616.904502651435,
        "timestamp": "2025-12-17T23:38:06.519885+00:00",
        "meta_object_name": "YAOGAN-10",
        "meta_object_id": "2010-038A",
        "meta_epoch": "2025-12-17T15:25:40.681344",
        "meta_mean_motion": 14.84626004,
        "meta_eccentricity": 0.00013763,
        "meta_inclination": 97.9139,
        "meta_ra_of_asc_node": 11.4272,
        "meta_arg_of_pericenter": 80.5958,
        "meta_mean_anomaly": 65.7779,
        "meta_ephemeris_type": 0,
        "meta_classification_type": "U",
        "meta_norad_cat_id": 36834,
        "meta_element_set_no": 999,
        "meta_rev_at_epoch": 83026,
        "meta_bstar": 0.00020726474,
        "meta_mean_motion_dot": 1.698e-05,
        "meta_mean_motion_ddot": 0,
        "tle_line1": "1 36834U 10038A   25351.64283196  .00001698  00000+0  20726-3 0  9994",
        "tle_line2": "2 36834  97.9139  11.4272 0001376  80.5958  65.7779 14.84626004830268"
      },
      "geometry": {
        "type": "Point",
        "coordinates": [
          -167.27544995782472,
          6.853381192825752
        ]
      }
    },
    {
      "type": "Feature",
      "properties": {
        "norad_id": 37216,
        "name": "COSMO-SKYMED 4",
        "group": "resource",
        "lat": 48.88712188786132,
        "lon": 164.09721768977832,
        "alt_km": 617.312475335053,
        "timestamp": "2025-12-17T23:38:06.519895+00:00",
        "meta_object_name": "COSMO-SKYMED 4",
        "meta_object_id": "2010-060A",
        "meta_epoch": "2025-12-17T15:18:40.474944",
        "meta_mean_motion": 14.82150211,
        "meta_eccentricity": 0.00013759,
        "meta_inclination": 97.8801,
        "meta_ra_of_asc_node": 172.8869,
        "meta_arg_of_pericenter": 80.2072,
        "meta_mean_anomaly": 279.9296,
        "meta_ephemeris_type": 0,
        "meta_classification_type": "U",
        "meta_norad_cat_id": 37216,
        "meta_element_set_no": 999,
        "meta_rev_at_epoch": 81767,
        "meta_bstar": 3.1080477e-05,
        "meta_mean_motion_dot": 1.95e-06,
        "meta_mean_motion_ddot": 0,
        "tle_line1": "1 37216U 10060A   25351.63796846  .00000195  00000+0  31080-4 0  9991",
        "tle_line2": "2 37216  97.8801 172.8869 0001375  80.2072 279.9296 14.82150211817678"
      },
      "geometry": {
        "type": "Point",
        "coordinates": [
          164.09721768977832,
          48.88712188786132
        ]
      }
    },
    {
      "type": "Feature",
      "properties": {
        "norad_id": 37387,
        "name": "RESOURCESAT-2",
        "group": "resource",
        "lat": -46.30230343699195,
        "lon": 64.82874189141342,
        "alt_km": 825.5583709609646,
        "timestamp": "2025-12-17T23:38:06.519906+00:00",
        "meta_object_name": "RESOURCESAT-2",
        "meta_object_id": "2011-015A",
        "meta_epoch": "2025-12-17T15:24:35.308512",
        "meta_mean_motion": 14.21599214,
        "meta_eccentricity": 0.00062093,
        "meta_inclination": 98.7873,
        "meta_ra_of_asc_node": 55.1718,
        "meta_arg_of_pericenter": 29.5889,
        "meta_mean_anomaly": 330.5638,
        "meta_ephemeris_type": 0,
        "meta_classification_type": "U",
        "meta_norad_cat_id": 37387,
        "meta_element_set_no": 999,
        "meta_rev_at_epoch": 76038,
        "meta_bstar": 7.2847336e-05,
        "meta_mean_motion_dot": 1.15e-06,
        "meta_mean_motion_ddot": 0,
        "tle_line1": "1 37387U 11015A   25351.64207533  .00000115  00000+0  72847-4 0  9990",
        "tle_line2": "2 37387  98.7873  55.1718 0006209  29.5889 330.5638 14.21599214760387"
      },
      "geometry": {
        "type": "Point",
        "coordinates": [
          64.82874189141342,
          -46.30230343699195
        ]
      }
    }
  ]
}